IRIDIUM 106             
1 41917U 17003A   25138.55451783  .00000064  00000+0  15708-4 0  9994
2 41917  86.3968 253.3835 0002753  97.7536 262.3973 14.34218040436649
IRIDIUM 103             
1 41918U 17003B   25138.61159981  .00000019  00000+0 -37161-6 0  9997
2 41918  86.3968 253.2607 0002063 111.9987 248.1428 14.34217660436676
IRIDIUM 102             
1 41920U 17003D   25138.58622967  .00000080  00000+0  21450-4 0  9994
2 41920  86.3968 253.2559 0002217  91.3667 268.7783 14.34218117436728
IRIDIUM 105             
1 41921U 17003E   25138.27789570  .00000172  00000+0  54334-4 0  9994
2 41921  86.4010 221.8389 0002179 100.8618 259.2823 14.34217632438531
IRIDIUM 104             
1 41922U 17003F   25138.59891396  .00000007  00000+0 -44890-5 0  9995
2 41922  86.3968 253.2875 0001737 102.6630 257.4760 14.34217658436711
IRIDIUM 114             
1 41923U 17003G   25138.39595210  .00000038  00000+0  65364-5 0  9992
2 41923  86.3969 253.3568 0002247 102.7683 257.3764 14.34217827436664
